TIANMU-1 07             
1 57399U 23101A   26065.57454230  .00008352  00000+0  29795-3 0  9991
2 57399  97.2728 118.5929 0004609 142.4105 217.7458 15.29118809145964
STARLINK-32959          
1 63569U 25076A   26068.09089922  .00042708  00000+0  15507-2 0  9990
2 63569  43.0013 329.0575 0001663 269.6925  90.3736 15.27618112 51691
